{"type":"FeatureCollection","crs":{"type":"name","properties":{"name":"EPSG:4326"}},"features":[{"type":"Feature","geometry":{"type":"Polygon","coordinates":[[[-85.502963,42.913224],[-85.502827,42.913204],[-85.502725,42.913194],[-85.50261,42.913217],[-85.50243,42.913211],[-85.502084,42.913218],[-85.501208,42.913238],[-85.500208,42.91326],[-85.50019,42.91326],[-85.500063,42.91326],[-85.499966,42.913222],[-85.499877,42.913221],[-85.499705,42.913203],[-85.499685,42.913199],[-85.499583,42.913179],[-85.499443,42.913138],[-85.499267,42.913088],[-85.4991,42.913041],[-85.499009,42.913023],[-85.498934,42.913009],[-85.498891,42.913008],[-85.498862,42.913012],[-85.498835,42.91302],[-85.498835,42.91302],[-85.498789,42.912977],[-85.497931,42.912167],[-85.497931,42.912167],[-85.497299,42.911569],[-85.49763,42.911099],[-85.497846,42.910912],[-85.497846,42.910912],[-85.498208,42.910598],[-85.49872,42.910115],[-85.499025,42.909872],[-85.499489,42.909901],[-85.499489,42.909901],[-85.499813,42.909774],[-85.499813,42.909774],[-85.500138,42.909648],[-85.500138,42.909648],[-85.500106,42.909256],[-85.500101,42.908786],[-85.500095,42.908244],[-85.500083,42.907205],[-85.500083,42.907204],[-85.500083,42.907204],[-85.500077,42.905827],[-85.500072,42.904466],[-85.49988,42.904442],[-85.499674,42.904342],[-85.499249,42.904175],[-85.498907,42.904016],[-85.498837,42.903941],[-85.498913,42.903758],[-85.499092,42.903578],[-85.499204,42.903356],[-85.499286,42.903151],[-85.499031,42.903116],[-85.498802,42.903084],[-85.498741,42.903184],[-85.498536,42.90327],[-85.498306,42.903325],[-85.498056,42.903418],[-85.497937,42.903437],[-85.49759,42.903543],[-85.497389,42.90375],[-85.497206,42.903853],[-85.496672,42.903754],[-85.496129,42.903611],[-85.49576,42.903547],[-85.495382,42.903406],[-85.494786,42.903253],[-85.494523,42.903209],[-85.494523,42.903209],[-85.494408,42.903186],[-85.494408,42.903186],[-85.493718,42.903049],[-85.493718,42.903049],[-85.493308,42.902892],[-85.493308,42.902892],[-85.493003,42.902717],[-85.493003,42.902717],[-85.49206,42.902065],[-85.49206,42.902065],[-85.491564,42.901794],[-85.491564,42.901794],[-85.491136,42.901533],[-85.491136,42.901533],[-85.490691,42.901207],[-85.490691,42.901207],[-85.490373,42.900911],[-85.490373,42.900911],[-85.490284,42.900533],[-85.490145,42.9002],[-85.490003,42.900005],[-85.490003,42.900005],[-85.489848,42.899865],[-85.489848,42.899865],[-85.48977,42.899762],[-85.48977,42.899762],[-85.489737,42.899681],[-85.489914,42.899627],[-85.490063,42.899613],[-85.490215,42.899495],[-85.490268,42.899307],[-85.490232,42.899142],[-85.490073,42.898898],[-85.490073,42.898898],[-85.489779,42.898805],[-85.489589,42.898726],[-85.489266,42.898678],[-85.489209,42.89874],[-85.489141,42.898922],[-85.489075,42.898973],[-85.488949,42.898987],[-85.488949,42.898987],[-85.488927,42.898789],[-85.488871,42.898493],[-85.488751,42.898298],[-85.488751,42.898298],[-85.488592,42.898241],[-85.488493,42.898171],[-85.488493,42.898171],[-85.488499,42.898138],[-85.488616,42.898081],[-85.488681,42.89803],[-85.48889,42.898014],[-85.489274,42.898089],[-85.489663,42.898131],[-85.489795,42.898062],[-85.489808,42.897792],[-85.489966,42.89763],[-85.49021,42.89757],[-85.490607,42.897397],[-85.490607,42.897397],[-85.490462,42.897328],[-85.490299,42.897354],[-85.489977,42.897349],[-85.489555,42.897242],[-85.489428,42.897025],[-85.489428,42.897025],[-85.489199,42.896903],[-85.488885,42.896887],[-85.488718,42.896637],[-85.488718,42.896637],[-85.488726,42.896434],[-85.488781,42.896312],[-85.488739,42.89618],[-85.488739,42.89618],[-85.488504,42.896086],[-85.48829,42.895964],[-85.488238,42.895772],[-85.488354,42.89549],[-85.488489,42.895113],[-85.488499,42.89508],[-85.488603,42.894753],[-85.488613,42.894632],[-85.488811,42.894133],[-85.489088,42.893957],[-85.489506,42.893756],[-85.489769,42.893607],[-85.489899,42.893489],[-85.489911,42.893407],[-85.489799,42.893409],[-85.489799,42.893409],[-85.489425,42.893587],[-85.489136,42.893642],[-85.48882,42.893588],[-85.48882,42.893588],[-85.488731,42.893205],[-85.488856,42.892157],[-85.48871,42.89166],[-85.488188,42.890306],[-85.488079,42.889786],[-85.488034,42.889391],[-85.487721,42.888739],[-85.487721,42.888739],[-85.487611,42.88851],[-85.48807,42.888548],[-85.488504,42.888583],[-85.488504,42.888583],[-85.491644,42.888848],[-85.491739,42.888857],[-85.493343,42.889005],[-85.494467,42.889109],[-85.494738,42.889119],[-85.494854,42.88913],[-85.4956,42.8892],[-85.496502,42.889303],[-85.496683,42.889324],[-85.496928,42.889362],[-85.497825,42.889501],[-85.499163,42.889768],[-85.499412,42.889833],[-85.500325,42.890072],[-85.50143,42.890404],[-85.50256,42.890796],[-85.502902,42.890938],[-85.50344,42.89116],[-85.503821,42.891334],[-85.504155,42.891492],[-85.50418,42.891504],[-85.504879,42.891841],[-85.505058,42.891939],[-85.505059,42.891939],[-85.50541,42.89213],[-85.506033,42.892491],[-85.506368,42.892686],[-85.506518,42.892784],[-85.506667,42.892881],[-85.50736,42.893332],[-85.509289,42.894647],[-85.509272,42.894349],[-85.509269,42.894294],[-85.509251,42.893758],[-85.509251,42.893752],[-85.509255,42.893467],[-85.50854,42.892948],[-85.508067,42.892621],[-85.507854,42.892454],[-85.50769,42.892344],[-85.507526,42.892218],[-85.507368,42.892088],[-85.507237,42.891954],[-85.507096,42.891808],[-85.506992,42.89165],[-85.506884,42.891444],[-85.506754,42.891209],[-85.506566,42.890727],[-85.506423,42.890244],[-85.506271,42.889138],[-85.506236,42.888888],[-85.506165,42.888582],[-85.506117,42.888441],[-85.506051,42.888265],[-85.505967,42.888098],[-85.505864,42.887899],[-85.505725,42.887682],[-85.505549,42.887465],[-85.505227,42.887143],[-85.50222,42.88472],[-85.501567,42.884182],[-85.500114,42.88302],[-85.499742,42.88265],[-85.499435,42.882263],[-85.499233,42.881934],[-85.499129,42.881651],[-85.499078,42.8815],[-85.498991,42.881301],[-85.498917,42.881022],[-85.498849,42.88048],[-85.498751,42.876972],[-85.498717,42.876216],[-85.498605,42.873378],[-85.49846,42.869824],[-85.498406,42.868301],[-85.498381,42.867453],[-85.498385,42.866424],[-85.498376,42.866219],[-85.498357,42.865559],[-85.498329,42.86434],[-85.498246,42.861908],[-85.498184,42.86072],[-85.498148,42.858868],[-85.498119,42.855855],[-85.498115,42.855381],[-85.498767,42.855368],[-85.499685,42.85535],[-85.500268,42.855338],[-85.503334,42.855279],[-85.503335,42.855279],[-85.504139,42.855271],[-85.50414,42.855271],[-85.507913,42.855179],[-85.508016,42.855173],[-85.50807,42.85517],[-85.508072,42.85517],[-85.513521,42.855069],[-85.514834,42.855045],[-85.514968,42.855042],[-85.516108,42.85502],[-85.516554,42.855012],[-85.51677,42.855008],[-85.517329,42.854996],[-85.517565,42.854991],[-85.517567,42.854991],[-85.518613,42.854972],[-85.519911,42.85495],[-85.519913,42.85495],[-85.522926,42.8549],[-85.52467,42.854867],[-85.524675,42.854867],[-85.5278,42.854807],[-85.53053,42.85477],[-85.530658,42.854769],[-85.532809,42.85474],[-85.53375,42.854728],[-85.534247,42.854721],[-85.535983,42.854717],[-85.537728,42.854694],[-85.538819,42.854672],[-85.541414,42.854605],[-85.541968,42.854586],[-85.541968,42.854586],[-85.542043,42.854584],[-85.542395,42.854572],[-85.542396,42.854572],[-85.543138,42.854546],[-85.543674,42.854528],[-85.545126,42.854508],[-85.545837,42.854498],[-85.545858,42.85532],[-85.545859,42.855344],[-85.545921,42.856521],[-85.545923,42.856554],[-85.545924,42.856562],[-85.54594,42.856719],[-85.545948,42.856793],[-85.546216,42.859322],[-85.546216,42.859322],[-85.546216,42.859323],[-85.546233,42.85995],[-85.546233,42.85995],[-85.546181,42.861961],[-85.546153,42.862063],[-85.546151,42.862183],[-85.546169,42.862764],[-85.546193,42.8635],[-85.546196,42.863589],[-85.546196,42.863589],[-85.546199,42.863663],[-85.546278,42.865377],[-85.546291,42.865663],[-85.546328,42.866887],[-85.546423,42.869],[-85.546434,42.869173],[-85.546445,42.869335],[-85.546448,42.869378],[-85.546512,42.870617],[-85.54658,42.871952],[-85.546617,42.872591],[-85.546619,42.872633],[-85.54665,42.873311],[-85.546756,42.875506],[-85.546779,42.875986],[-85.546796,42.876339],[-85.546961,42.879767],[-85.546973,42.880008],[-85.547052,42.881701],[-85.547081,42.882308],[-85.547115,42.883202],[-85.547127,42.883516],[-85.547129,42.883568],[-85.547129,42.883568],[-85.547133,42.883633],[-85.54727,42.885928],[-85.54727,42.885928],[-85.547324,42.886874],[-85.547461,42.889266],[-85.547553,42.890867],[-85.547567,42.891166],[-85.547585,42.891548],[-85.547628,42.892117],[-85.547673,42.892767],[-85.547678,42.892856],[-85.547709,42.893374],[-85.547776,42.894315],[-85.547781,42.894393],[-85.547781,42.894393],[-85.547781,42.894393],[-85.547782,42.8944],[-85.547893,42.896147],[-85.547915,42.89645],[-85.547916,42.896459],[-85.547953,42.897153],[-85.547999,42.898054],[-85.547999,42.898054],[-85.548238,42.90152],[-85.548304,42.902452],[-85.548304,42.902452],[-85.54848,42.90482],[-85.548671,42.907785],[-85.548682,42.907946],[-85.548763,42.909142],[-85.54886,42.910614],[-85.548907,42.911409],[-85.548922,42.91166],[-85.548922,42.91166],[-85.548959,42.912148],[-85.548974,42.912561],[-85.548974,42.912561],[-85.548492,42.912572],[-85.546489,42.912614],[-85.543617,42.912677],[-85.541228,42.912727],[-85.540765,42.912737],[-85.538729,42.91277],[-85.538244,42.912778],[-85.537672,42.912792],[-85.536968,42.912809],[-85.536362,42.912824],[-85.536361,42.912824],[-85.53591,42.912841],[-85.535909,42.912841],[-85.535565,42.912849],[-85.534942,42.912862],[-85.534854,42.912864],[-85.534091,42.912881],[-85.532492,42.912911],[-85.531575,42.912935],[-85.531199,42.912945],[-85.531199,42.912945],[-85.529632,42.912998],[-85.529632,42.912998],[-85.528276,42.913016],[-85.526791,42.913028],[-85.524786,42.913063],[-85.523424,42.913073],[-85.522239,42.913082],[-85.520834,42.913086],[-85.518882,42.913092],[-85.517338,42.913099],[-85.517181,42.913099],[-85.517088,42.9131],[-85.517087,42.9131],[-85.516266,42.913102],[-85.514795,42.913107],[-85.514419,42.913108],[-85.514053,42.913109],[-85.513767,42.91311],[-85.513321,42.913112],[-85.511212,42.913121],[-85.510066,42.91313],[-85.508086,42.913146],[-85.50577,42.913167],[-85.50577,42.913167],[-85.505419,42.913169],[-85.505106,42.913179],[-85.504826,42.913205],[-85.504677,42.913229],[-85.504631,42.913237],[-85.504627,42.913237],[-85.504397,42.91323],[-85.504236,42.913276],[-85.504084,42.913323],[-85.504022,42.913343],[-85.503847,42.913415],[-85.50362,42.913521],[-85.503412,42.913396],[-85.503354,42.913362],[-85.503214,42.913297],[-85.503068,42.913255],[-85.502963,42.913224]]]},"properties":{"PRECINCTCODE":"0811366000005","Precinct_Long_Name":"Cascade Charter Township, Precinct 5"}},{"type":"Feature","geometry":{"type":"Polygon","coordinates":[[[-83.142236,42.692445],[-83.14206,42.692404],[-83.141685,42.692413],[-83.141652,42.692413],[-83.140478,42.69243],[-83.138585,42.692465],[-83.13858,42.692466],[-83.136911,42.692477],[-83.136885,42.692477],[-83.136341,42.6925],[-83.134253,42.692523],[-83.134253,42.692523],[-83.134251,42.6925],[-83.134238,42.692059],[-83.134209,42.69119],[-83.134205,42.691073],[-83.134205,42.691061],[-83.13418,42.690326],[-83.134171,42.69005],[-83.13415,42.689439],[-83.134136,42.689017],[-83.134135,42.688993],[-83.134116,42.688568],[-83.134116,42.688558],[-83.134084,42.68793],[-83.134068,42.687638],[-83.134033,42.686934],[-83.134032,42.686912],[-83.133986,42.685938],[-83.133973,42.68568],[-83.133971,42.685651],[-83.133919,42.684624],[-83.13388,42.683858],[-83.133869,42.683575],[-83.133856,42.683169],[-83.133823,42.682062],[-83.133822,42.682057],[-83.133775,42.680719],[-83.133775,42.6807],[-83.133732,42.679399],[-83.133732,42.679386],[-83.13369,42.67824],[-83.13369,42.678215],[-83.133653,42.677211],[-83.133635,42.676948],[-83.133635,42.676943],[-83.133594,42.676342],[-83.133567,42.675949],[-83.133556,42.675789],[-83.133542,42.675588],[-83.133497,42.674929],[-83.133497,42.67492],[-83.133464,42.674423],[-83.13717,42.674329],[-83.13752,42.674321],[-83.13777,42.674305],[-83.137787,42.674304],[-83.138061,42.674286],[-83.138075,42.674286],[-83.140499,42.674212],[-83.141899,42.674087],[-83.141922,42.674085],[-83.143253,42.673965],[-83.143465,42.673946],[-83.144011,42.673926],[-83.144139,42.673922],[-83.144243,42.673918],[-83.144304,42.673916],[-83.145786,42.673869],[-83.146959,42.673831],[-83.148419,42.673784],[-83.148418,42.673792],[-83.148418,42.673824],[-83.148415,42.673942],[-83.148411,42.674127],[-83.148435,42.6742],[-83.148438,42.674209],[-83.148455,42.674219],[-83.148497,42.674244],[-83.148405,42.674244],[-83.148223,42.674244],[-83.148205,42.675886],[-83.148223,42.676495],[-83.148224,42.676517],[-83.1482,42.67693],[-83.148193,42.677302],[-83.148193,42.677305],[-83.148281,42.678208],[-83.148441,42.678832],[-83.14841,42.678935],[-83.148396,42.679057],[-83.148388,42.680655],[-83.148397,42.681511],[-83.148451,42.681769],[-83.148451,42.681782],[-83.148452,42.681783],[-83.148476,42.682328],[-83.148522,42.683353],[-83.148677,42.683501],[-83.148706,42.683653],[-83.148769,42.684556],[-83.148761,42.685035],[-83.148716,42.687632],[-83.148653,42.688886],[-83.148525,42.691815],[-83.148494,42.692505],[-83.148162,42.692371],[-83.147517,42.69234],[-83.145917,42.69234],[-83.145599,42.692359],[-83.145467,42.692364],[-83.145433,42.692365],[-83.144801,42.692382],[-83.143912,42.692406],[-83.143925,42.692897],[-83.143908,42.693529],[-83.143984,42.694274],[-83.143438,42.694286],[-83.142724,42.693868],[-83.14272,42.693866],[-83.142704,42.693105],[-83.142654,42.692911],[-83.142582,42.692755],[-83.142579,42.692748],[-83.142417,42.692588],[-83.142236,42.692445]]]},"properties":{"PRECINCTCODE":"1256902000001","Precinct_Long_Name":"City of Rochester, Precinct 1"}}]}